PROBA-1                 
1 26958U 01049B   26168.86681527  .00001034  00000+0  70292-4 0  9991
2 26958  97.9594 177.4228 0056486 119.5899 241.0973 15.07495301343727
CUTE-1 (CO-55)          
1 27844U 03031E   26168.52891236  .00000222  00000+0  11503-3 0  9999
2 27844  98.6736 177.0834 0009564 176.9717 183.1521 14.24335893191721
CUBESAT XI-IV (CO-57)   
1 27848U 03031J   26167.95527530  .00000197  00000+0  10575-3 0  9991
2 27848  98.6766 176.2299 0009009 197.6805 162.4061 14.23620738191347
APRIZESAT 4             
1 35684U 09041D   26168.72906586  .00000516  00000+0  68318-4 0  9997
2 35684  98.1413 244.0604 0042370 321.2611  38.5566 14.83879933911443
APRIZESAT 3             
1 35686U 09041F   26168.36647334  .00001525  00000+0  13572-3 0  9994
2 35686  98.2062 321.5987 0062791  67.1799 293.6036 14.96242028916403
PROBA-2                 
1 36037U 09059B   26168.44679996  .00000132  00000+0  41234-4 0  9992
2 36037  98.2449 351.7959 0011957 281.2389  78.7464 14.54862537881561
APRIZESAT 5             
1 37792U 11044E   26168.81794647  .00000902  00000+0  12112-3 0  9997
2 37792  98.2452 101.8762 0052284   2.3178 357.8266 14.81077372798884
APRIZESAT 6             
1 37793U 11044F   26168.68872715  .00000602  00000+0  92142-4 0  9995
2 37793  98.2363  79.1985 0044506  84.4869 336.3688 14.76916508797220
PROBA-V                 
1 39159U 13021A   26168.82200324  .00000042  00000+0  36393-4 0  9991
2 39159  98.3584 147.3973 0005165 121.9484 238.2198 14.23597042681203
APRIZESAT 7             
1 39416U 13066A   26168.82481251  .00000998  00000+0  10411-3 0  9998
2 39416  97.7709 122.0355 0035048 207.1269 152.8120 14.91565344681320
APRIZESAT 8             
1 39425U 13066K   26168.81406071  .00000765  00000+0  88832-4 0  9999
2 39425  97.8220 116.2732 0044416 284.4333  75.1956 14.87653721679763
BUGSAT-1 (TITA)         
1 40014U 14033E   26168.82850159  .00003667  00000+0  19532-3 0  9995
2 40014  98.0432 261.4146 0028055 175.9290 184.2175 15.15590009655935
SAUDISAT 4              
1 40016U 14033G   26168.38937615  .00000526  00000+0  75815-4 0  9999
2 40016  97.7583 314.5169 0046153  73.3541 287.2731 14.79544974646104
APRIZESAT 9             
1 40018U 14033J   26168.81847350  .00000558  00000+0  89358-4 0  9997
2 40018  97.9063 302.0016 0065736 197.1174 162.7818 14.74215291643651
APRIZESAT 10            
1 40019U 14033K   26168.80692469  .00000344  00000+0  62213-4 0  9990
2 40019  97.9651 295.7524 0077387 271.8308  87.4037 14.70882925642342
TECHDEMOSAT-1 (TDS-1)   
1 40076U 14037H   26168.81973073  .00006138  00000+0  34901-3 0  9990
2 40076  98.3813 161.0951 0004515 262.7784  97.2932 15.13300800648321
TECHNOSAT               
1 42829U 17042E   26168.44873474  .00003130  00000+0  22414-3 0  9995
2 42829  97.4288 326.0959 0018967  93.3985 266.9412 15.04963189486742
FLYING LAPTOP           
1 42831U 17042G   26168.85210081  .00003020  00000+0  23924-3 0  9997
2 42831  97.4687 324.3590 0019585 119.4081 240.9102 15.01150181486558
HAWK-A                  
1 43765U 18099H   26168.61063549  .00005015  00000+0  20302-3 0  9999
2 43765  97.3909 220.8412 0033104 284.3223  75.4340 15.24646994413166
HAWK-B                  
1 43794U 18099AN  26168.10700359  .00004680  00000+0  20062-3 0  9992
2 43794  97.3960 219.7593 0030487 305.2659  54.5726 15.22825315413024
HAWK-C                  
1 43799U 18099AT  26168.71718560  .00005811  00000+0  21022-3 0  9991
2 43799  97.3887 221.8611 0038736 283.8302  75.8629 15.28108853413994
SALSAT                  
1 46495U 20068K   26168.53797512  .00006219  00000+0  21821-3 0  9990
2 46495  97.8847 171.6239 0008040 306.6544  53.3955 15.29803905315418
HAWK-2C                 
1 47502U 21006CT  26168.60869416  .00005190  00000+0  15671-3 0  9997
2 47502  97.2273 212.9102 0006738 184.1781 175.9408 15.34667560299569
HAWK-2A                 
1 47505U 21006CW  26168.67638491  .00005345  00000+0  16128-3 0  9994
2 47505  97.2313 213.6547 0006173 186.8818 173.2342 15.34683356299571
HAWK-2B                 
1 47508U 21006CZ  26168.67189264  .00005906  00000+0  17741-3 0  9991
2 47508  97.2185 211.9813 0006756 185.2395 174.8779 15.34772024299570
HAWK-3B                 
1 48931U 21059BE  26168.51552448  .00036660  00000+0  31108-3 0  9995
2 48931  97.6650   5.2542 0003195 330.6002  29.5079 15.69577683277904
HAWK-3C                 
1 48948U 21059BX  26168.51519967  .00034353  00000+0  29163-3 0  9997
2 48948  97.6772  10.9402 0003528 331.2504  28.8563 15.69577806277906
HAWK-3A                 
1 48957U 21059CG  26168.51506151  .00036520  00000+0  30965-3 0  9998
2 48957  97.6717   8.1459 0003696 333.9883  26.1192 15.69595385277902
HAWK-5C                 
1 52754U 22057Y   26168.43111723  .00015508  00000+0  26483-3 0  9998
2 52754  97.6601 328.1130 0004985  82.4478 277.7340 15.51400159226383
HAWK-5B                 
1 52756U 22057AA  26168.43096569  .00015212  00000+0  25978-3 0  9990
2 52756  97.6610 326.4621 0005655  75.3473 284.8405 15.51400967226380
